{
  "norad_id": 63904,
  "name": "STARLINK-34092",
  "history": [
    {
      "epoch": "2026-03-28T15:28:15.828960Z",
      "apogee_km": 483.6895911979391,
      "perigee_km": 482.36538645159544,
      "latitude_deg": -2.4338670150369262e-05,
      "longitude_deg": 11.310210213220849,
      "height_km": 482.7523997434404,
      "semi_major_axis_km": 6861.164488824767,
      "eccentricity": 9.65e-05,
      "inclination_deg": 43.0008,
      "raan_deg": 69.4383,
      "arg_perigee_deg": 274.4623,
      "mean_anomaly_deg": 85.6118,
      "mean_motion_rev_day": 15.27587216
    },
    {
      "epoch": "2026-03-30T05:08:00.783744Z",
      "apogee_km": 483.71567236757164,
      "perigee_km": 482.2926716884931,
      "latitude_deg": -1.3429738776587823e-06,
      "longitude_deg": 155.96378035493072,
      "height_km": 482.8244768315563,
      "semi_major_axis_km": 6861.141172028032,
      "eccentricity": 0.0001037,
      "inclination_deg": 43.001,
      "raan_deg": 60.5759,
      "arg_perigee_deg": 266.4698,
      "mean_anomaly_deg": 93.6035,
      "mean_motion_rev_day": 15.27595003
    },
    {
      "epoch": "2026-03-30T05:08:00.784608Z",
      "apogee_km": 483.7156037561599,
      "perigee_km": 482.29274029990484,
      "latitude_deg": -2.1276294723803715e-06,
      "longitude_deg": 155.96377590831375,
      "height_km": 482.8244726073772,
      "semi_major_axis_km": 6861.141172028032,
      "eccentricity": 0.00010369,
      "inclination_deg": 43.001,
      "raan_deg": 60.5759,
      "arg_perigee_deg": 266.4698,
      "mean_anomaly_deg": 93.6035,
      "mean_motion_rev_day": 15.27595003
    },
    {
      "epoch": "2026-03-30T14:32:56.939712Z",
      "apogee_km": 483.43394128616455,
      "perigee_km": 482.50659402786823,
      "latitude_deg": 5.378497307087554e-05,
      "longitude_deg": 12.126271492145593,
      "height_km": 482.76118180008166,
      "semi_major_axis_km": 6861.107267657016,
      "eccentricity": 6.758e-05,
      "inclination_deg": 43.0006,
      "raan_deg": 58.359,
      "arg_perigee_deg": 268.1718,
      "mean_anomaly_deg": 91.9057,
      "mean_motion_rev_day": 15.27606326
    },
    {
      "epoch": "2026-03-30T22:23:43.582848Z",
      "apogee_km": 483.4262183442388,
      "perigee_km": 482.5301567007491,
      "latitude_deg": 9.58617677381063e-06,
      "longitude_deg": -107.73565733414237,
      "height_km": 482.8590483603903,
      "semi_major_axis_km": 6861.115187522494,
      "eccentricity": 6.53e-05,
      "inclination_deg": 42.9987,
      "raan_deg": 56.5137,
      "arg_perigee_deg": 256.4467,
      "mean_anomaly_deg": 103.6312,
      "mean_motion_rev_day": 15.27603681
    },
    {
      "epoch": "2026-03-31T14:05:16.694592Z",
      "apogee_km": 484.1819538735699,
      "perigee_km": 481.7599827607528,
      "latitude_deg": 4.323348565064372e-06,
      "longitude_deg": 12.538303004675585,
      "height_km": 482.49007968583635,
      "semi_major_axis_km": 6861.107968317161,
      "eccentricity": 0.0001765,
      "inclination_deg": 42.9998,
      "raan_deg": 52.8201,
      "arg_perigee_deg": 282.2945,
      "mean_anomaly_deg": 77.7709,
      "mean_motion_rev_day": 15.27606092
    },
    {
      "epoch": "2026-04-01T13:37:39.463104Z",
      "apogee_km": 483.84336801260815,
      "perigee_km": 482.3366425622471,
      "latitude_deg": -1.439553792351458e-05,
      "longitude_deg": 12.937376123065905,
      "height_km": 482.6466831679149,
      "semi_major_axis_km": 6861.227005287427,
      "eccentricity": 0.0001098,
      "inclination_deg": 43.0006,
      "raan_deg": 47.2808,
      "arg_perigee_deg": 286.9654,
      "mean_anomaly_deg": 73.1077,
      "mean_motion_rev_day": 15.27566338
    },
    {
      "epoch": "2026-04-02T21:00:46.561824Z",
      "apogee_km": 483.0523968231182,
      "perigee_km": 482.73130067299735,
      "latitude_deg": -1.3447485358465753e-05,
      "longitude_deg": -106.51464840703099,
      "height_km": 482.7554356907321,
      "semi_major_axis_km": 6861.0288487480575,
      "eccentricity": 2.34e-05,
      "inclination_deg": 42.9975,
      "raan_deg": 39.8973,
      "arg_perigee_deg": 236.6436,
      "mean_anomaly_deg": 123.4393,
      "mean_motion_rev_day": 15.27632516
    },
    {
      "epoch": "2026-04-02T21:00:46.562688Z",
      "apogee_km": 483.05246543340763,
      "perigee_km": 482.73123206270884,
      "latitude_deg": -1.2802807480732927e-05,
      "longitude_deg": -106.51465132929859,
      "height_km": 482.755473411978,
      "semi_major_axis_km": 6861.0288487480575,
      "eccentricity": 2.341e-05,
      "inclination_deg": 42.9975,
      "raan_deg": 39.8973,
      "arg_perigee_deg": 236.6436,
      "mean_anomaly_deg": 123.4393,
      "mean_motion_rev_day": 15.27632516
    },
    {
      "epoch": "2026-04-03T20:33:07.551360Z",
      "apogee_km": 483.6217086760562,
      "perigee_km": 482.59252205874964,
      "latitude_deg": 2.7337615114868603e-05,
      "longitude_deg": -106.10748039114664,
      "height_km": 482.5387103619798,
      "semi_major_axis_km": 6861.244115367403,
      "eccentricity": 7.5e-05,
      "inclination_deg": 42.9982,
      "raan_deg": 34.3586,
      "arg_perigee_deg": 311.9816,
      "mean_anomaly_deg": 48.0972,
      "mean_motion_rev_day": 15.27560624
    },
    {
      "epoch": "2026-04-04T12:14:42.475776Z",
      "apogee_km": 483.8811362919032,
      "perigee_km": 482.24432848374363,
      "latitude_deg": -1.295038741233771e-05,
      "longitude_deg": 14.15926771783899,
      "height_km": 482.3725983786474,
      "semi_major_axis_km": 6861.199732387823,
      "eccentricity": 0.00011928,
      "inclination_deg": 42.9996,
      "raan_deg": 30.6654,
      "arg_perigee_deg": 304.751,
      "mean_anomaly_deg": 55.3229,
      "mean_motion_rev_day": 15.27575446
    },
    {
      "epoch": "2026-04-05T11:47:03.276096Z",
      "apogee_km": 483.70943241052646,
      "perigee_km": 482.36752371052717,
      "latitude_deg": 7.1983312847026415e-06,
      "longitude_deg": 14.567402914365113,
      "height_km": 482.2187257994707,
      "semi_major_axis_km": 6861.175478060526,
      "eccentricity": 9.779e-05,
      "inclination_deg": 42.9998,
      "raan_deg": 25.1269,
      "arg_perigee_deg": 332.5968,
      "mean_anomaly_deg": 27.4832,
      "mean_motion_rev_day": 15.27583546
    },
    {
      "epoch": "2026-04-06T05:02:45.720096Z",
      "apogee_km": 483.8271299742264,
      "perigee_km": 482.11624391204987,
      "latitude_deg": -9.032390268374084e-06,
      "longitude_deg": 110.87051764710915,
      "height_km": 482.5917151901409,
      "semi_major_axis_km": 6861.108686943137,
      "eccentricity": 0.00012468,
      "inclination_deg": 43.0009,
      "raan_deg": 21.0658,
      "arg_perigee_deg": 280.5515,
      "mean_anomaly_deg": 79.5196,
      "mean_motion_rev_day": 15.27605852
    },
    {
      "epoch": "2026-04-07T10:51:44.193312Z",
      "apogee_km": 483.764359291431,
      "perigee_km": 482.2484582666948,
      "latitude_deg": 1.7096922341090463e-05,
      "longitude_deg": 15.385594255188364,
      "height_km": 482.8643588681562,
      "semi_major_axis_km": 6861.143408779062,
      "eccentricity": 0.00011047,
      "inclination_deg": 42.9992,
      "raan_deg": 14.049,
      "arg_perigee_deg": 263.819,
      "mean_anomaly_deg": 96.2536,
      "mean_motion_rev_day": 15.27594256
    },
    {
      "epoch": "2026-04-08T02:33:18.239904Z",
      "apogee_km": 483.95556111146016,
      "perigee_km": 482.1031834142759,
      "latitude_deg": -1.3708755397423017e-05,
      "longitude_deg": 135.657618652857,
      "height_km": 482.74443988218724,
      "semi_major_axis_km": 6861.166372262867,
      "eccentricity": 0.00013499,
      "inclination_deg": 42.9976,
      "raan_deg": 10.3574,
      "arg_perigee_deg": 273.7969,
      "mean_anomaly_deg": 86.2728,
      "mean_motion_rev_day": 15.27586587
    },
    {
      "epoch": "2026-04-09T09:56:25.875168Z",
      "apogee_km": 483.7374643458352,
      "perigee_km": 482.2664361549014,
      "latitude_deg": -2.200717808601497e-06,
      "longitude_deg": 16.201158558083545,
      "height_km": 482.82768539316703,
      "semi_major_axis_km": 6861.138950250368,
      "eccentricity": 0.0001072,
      "inclination_deg": 42.9991,
      "raan_deg": 2.9717,
      "arg_perigee_deg": 266.1471,
      "mean_anomaly_deg": 93.9258,
      "mean_motion_rev_day": 15.27595745
    },
    {
      "epoch": "2026-04-10T01:37:59.886336Z",
      "apogee_km": 483.96427014764504,
      "perigee_km": 482.10283457678906,
      "latitude_deg": -1.0940018976336041e-05,
      "longitude_deg": 136.4731545614148,
      "height_km": 482.7027676669689,
      "semi_major_axis_km": 6861.170552362217,
      "eccentricity": 0.00013565,
      "inclination_deg": 42.9993,
      "raan_deg": 359.2799,
      "arg_perigee_deg": 276.6252,
      "mean_anomaly_deg": 83.4445,
      "mean_motion_rev_day": 15.27585191
    },
    {
      "epoch": "2026-04-11T16:51:54.302112Z",
      "apogee_km": 484.0809524436954,
      "perigee_km": 481.93753035788177,
      "latitude_deg": 3.2458705958734014e-06,
      "longitude_deg": -102.84715806886798,
      "height_km": 482.85056264352977,
      "semi_major_axis_km": 6861.146241400788,
      "eccentricity": 0.0001562,
      "inclination_deg": 43.0005,
      "raan_deg": 350.0475,
      "arg_perigee_deg": 266.5526,
      "mean_anomaly_deg": 93.5147,
      "mean_motion_rev_day": 15.2759331
    },
    {
      "epoch": "2026-04-13T00:15:02.801376Z",
      "apogee_km": 483.95008432436407,
      "perigee_km": 482.15025770566353,
      "latitude_deg": 2.4088538344318645e-05,
      "longitude_deg": 137.69358493040346,
      "height_km": 482.8863932927917,
      "semi_major_axis_km": 6861.1871710150135,
      "eccentricity": 0.00013116,
      "inclination_deg": 43.0007,
      "raan_deg": 342.6626,
      "arg_perigee_deg": 266.2071,
      "mean_anomaly_deg": 93.8631,
      "mean_motion_rev_day": 15.27579641
    }
  ]
}